{
  "type": "FeatureCollection",
  "features": [
    {
      "type": "Feature",
      "properties": {
        "norad_id": 30127,
        "name": "FENGYUN 1C DEB",
        "group": "fengyun-1c-debris",
        "lat": -70.76458608218955,
        "lon": -118.60737483360292,
        "alt_km": 790.9545757241485,
        "timestamp": "2025-12-27T02:10:16.463494+00:00",
        "meta_object_name": "FENGYUN 1C DEB",
        "meta_object_id": "1999-025SG",
        "meta_epoch": "2025-12-26T03:07:48.948960",
        "meta_mean_motion": 14.38179501,
        "meta_eccentricity": 0.00859474,
        "meta_inclination": 98.2064,
        "meta_ra_of_asc_node": 216.0454,
        "meta_arg_of_pericenter": 39.0779,
        "meta_mean_anomaly": 321.6576,
        "meta_ephemeris_type": 0,
        "meta_classification_type": "U",
        "meta_norad_cat_id": 30127,
        "meta_element_set_no": 999,
        "meta_rev_at_epoch": 97428,
        "meta_bstar": 0.0023175369,
        "meta_mean_motion_dot": 7.307e-05,
        "meta_mean_motion_ddot": 0,
        "tle_line1": "1 30127U 99025SG  25360.13042765  .00007307  00000+0  23175-2 0  9998",
        "tle_line2": "2 30127  98.2064 216.0454 0085947  39.0779 321.6576 14.38179501974283"
      },
      "geometry": {
        "type": "Point",
        "coordinates": [
          -118.60737483360292,
          -70.76458608218955
        ]
      }
    },
    {
      "type": "Feature",
      "properties": {
        "norad_id": 30128,
        "name": "FENGYUN 1C DEB",
        "group": "fengyun-1c-debris",
        "lat": -36.41322090488154,
        "lon": 2.500869996206716,
        "alt_km": 777.4301218553965,
        "timestamp": "2025-12-27T02:10:16.463504+00:00",
        "meta_object_name": "FENGYUN 1C DEB",
        "meta_object_id": "1999-025SH",
        "meta_epoch": "2025-12-25T22:23:18.364416",
        "meta_mean_motion": 14.4634022,
        "meta_eccentricity": 0.0107525,
        "meta_inclination": 96.9807,
        "meta_ra_of_asc_node": 356.3612,
        "meta_arg_of_pericenter": 83.5503,
        "meta_mean_anomaly": 337.0118,
        "meta_ephemeris_type": 0,
        "meta_classification_type": "U",
        "meta_norad_cat_id": 30128,
        "meta_element_set_no": 999,
        "meta_rev_at_epoch": 97502,
        "meta_bstar": 0.0026151,
        "meta_mean_motion_dot": 0.00010058,
        "meta_mean_motion_ddot": 0,
        "tle_line1": "1 30128U 99025SH  25359.93285144  .00010058  00000+0  26151-2 0  9999",
        "tle_line2": "2 30128  96.9807 356.3612 0107525  83.5503 337.0118 14.46340220975027"
      },
      "geometry": {
        "type": "Point",
        "coordinates": [
          2.500869996206716,
          -36.41322090488154
        ]
      }
    },
    {
      "type": "Feature",
      "properties": {
        "norad_id": 30129,
        "name": "FENGYUN 1C DEB",
        "group": "fengyun-1c-debris",
        "lat": 38.45856217631731,
        "lon": 127.67794873314116,
        "alt_km": 880.952822071411,
        "timestamp": "2025-12-27T02:10:16.463514+00:00",
        "meta_object_name": "FENGYUN 1C DEB",
        "meta_object_id": "1999-025SJ",
        "meta_epoch": "2025-12-26T18:55:52.796928",
        "meta_mean_motion": 14.01609297,
        "meta_eccentricity": 0.0188159,
        "meta_inclination": 98.0313,
        "meta_ra_of_asc_node": 300.9735,
        "meta_arg_of_pericenter": 52.612,
        "meta_mean_anomaly": 4.9672,
        "meta_ephemeris_type": 0,
        "meta_classification_type": "U",
        "meta_norad_cat_id": 30129,
        "meta_element_set_no": 999,
        "meta_rev_at_epoch": 96675,
        "meta_bstar": 0.00074029,
        "meta_mean_motion_dot": 1.273e-05,
        "meta_mean_motion_ddot": 0,
        "tle_line1": "1 30129U 99025SJ  25360.78880552  .00001273  00000+0  74029-3 0  9996",
        "tle_line2": "2 30129  98.0313 300.9735 0188159  52.6120   4.9672 14.01609297966756"
      },
      "geometry": {
        "type": "Point",
        "coordinates": [
          127.67794873314116,
          38.45856217631731
        ]
      }
    },
    {
      "type": "Feature",
      "properties": {
        "norad_id": 30131,
        "name": "FENGYUN 1C DEB",
        "group": "fengyun-1c-debris",
        "lat": 34.12397083526581,
        "lon": -80.46518011889033,
        "alt_km": 765.9524436679903,
        "timestamp": "2025-12-27T02:10:16.463524+00:00",
        "meta_object_name": "FENGYUN 1C DEB",
        "meta_object_id": "1999-025SL",
        "meta_epoch": "2025-12-26T05:28:34.483296",
        "meta_mean_motion": 14.21326623,
        "meta_eccentricity": 0.0081715,
        "meta_inclination": 99.0737,
        "meta_ra_of_asc_node": 92.4321,
        "meta_arg_of_pericenter": 121.0019,
        "meta_mean_anomaly": 294.1659,
        "meta_ephemeris_type": 0,
        "meta_classification_type": "U",
        "meta_norad_cat_id": 30131,
        "meta_element_set_no": 999,
        "meta_rev_at_epoch": 96880,
        "meta_bstar": 0.0022777,
        "meta_mean_motion_dot": 5.096e-05,
        "meta_mean_motion_ddot": 0,
        "tle_line1": "1 30131U 99025SL  25360.22817689  .00005096  00000+0  22777-2 0  9998",
        "tle_line2": "2 30131  99.0737  92.4321 0081715 121.0019 294.1659 14.21326623968809"
      },
      "geometry": {
        "type": "Point",
        "coordinates": [
          -80.46518011889033,
          34.12397083526581
        ]
      }
    },
    {
      "type": "Feature",
      "properties": {
        "norad_id": 30132,
        "name": "FENGYUN 1C DEB",
        "group": "fengyun-1c-debris",
        "lat": -32.557030397959345,
        "lon": 129.0229151434877,
        "alt_km": 989.0041466375224,
        "timestamp": "2025-12-27T02:10:16.463534+00:00",
        "meta_object_name": "FENGYUN 1C DEB",
        "meta_object_id": "1999-025SM",
        "meta_epoch": "2025-12-26T20:14:35.362176",
        "meta_mean_motion": 13.9486958,
        "meta_eccentricity": 0.0105466,
        "meta_inclination": 99.5794,
        "meta_ra_of_asc_node": 314.9563,
        "meta_arg_of_pericenter": 12.0366,
        "meta_mean_anomaly": 41.7148,
        "meta_ephemeris_type": 0,
        "meta_classification_type": "U",
        "meta_norad_cat_id": 30132,
        "meta_element_set_no": 999,
        "meta_rev_at_epoch": 96286,
        "meta_bstar": 0.00048429,
        "meta_mean_motion_dot": 6.33e-06,
        "meta_mean_motion_ddot": 0,
        "tle_line1": "1 30132U 99025SM  25360.84346484  .00000633  00000+0  48429-3 0  9992",
        "tle_line2": "2 30132  99.5794 314.9563 0105466  12.0366  41.7148 13.94869580962864"
      },
      "geometry": {
        "type": "Point",
        "coordinates": [
          129.0229151434877,
          -32.557030397959345
        ]
      }
    },
    {
      "type": "Feature",
      "properties": {
        "norad_id": 30133,
        "name": "FENGYUN 1C DEB",
        "group": "fengyun-1c-debris",
        "lat": -11.285941859501303,
        "lon": 168.3215784634308,
        "alt_km": 913.583644284472,
        "timestamp": "2025-12-27T02:10:16.463569+00:00",
        "meta_object_name": "FENGYUN 1C DEB",
        "meta_object_id": "1999-025SN",
        "meta_epoch": "2025-12-26T11:10:46.078176",
        "meta_mean_motion": 14.06739598,
        "meta_eccentricity": 0.008595,
        "meta_inclination": 98.3251,
        "meta_ra_of_asc_node": 166.072,
        "meta_arg_of_pericenter": 221.6049,
        "meta_mean_anomaly": 204.6819,
        "meta_ephemeris_type": 0,
        "meta_classification_type": "U",
        "meta_norad_cat_id": 30133,
        "meta_element_set_no": 999,
        "meta_rev_at_epoch": 96571,
        "meta_bstar": 0.0016636,
        "meta_mean_motion_dot": 2.819e-05,
        "meta_mean_motion_ddot": 0,
        "tle_line1": "1 30133U 99025SN  25360.46581109  .00002819  00000+0  16636-2 0  9998",
        "tle_line2": "2 30133  98.3251 166.0720 0085950 221.6049 204.6819 14.06739598965713"
      },
      "geometry": {
        "type": "Point",
        "coordinates": [
          168.3215784634308,
          -11.285941859501303
        ]
      }
    },
    {
      "type": "Feature",
      "properties": {
        "norad_id": 30134,
        "name": "FENGYUN 1C DEB",
        "group": "fengyun-1c-debris",
        "lat": -80.3967686843366,
        "lon": 84.42998837110328,
        "alt_km": 864.3803146360424,
        "timestamp": "2025-12-27T02:10:16.463581+00:00",
        "meta_object_name": "FENGYUN 1C DEB",
        "meta_object_id": "1999-025SP",
        "meta_epoch": "2025-12-26T07:56:59.699328",
        "meta_mean_motion": 14.13371042,
        "meta_eccentricity": 0.0019534,
        "meta_inclination": 98.6927,
        "meta_ra_of_asc_node": 18.9755,
        "meta_arg_of_pericenter": 145.5172,
        "meta_mean_anomaly": 227.5468,
        "meta_ephemeris_type": 0,
        "meta_classification_type": "U",
        "meta_norad_cat_id": 30134,
        "meta_element_set_no": 999,
        "meta_rev_at_epoch": 97438,
        "meta_bstar": 0.00045688,
        "meta_mean_motion_dot": 8.17e-06,
        "meta_mean_motion_ddot": 0,
        "tle_line1": "1 30134U 99025SP  25360.33124652  .00000817  00000+0  45688-3 0  9997",
        "tle_line2": "2 30134  98.6927  18.9755 0019534 145.5172 227.5468 14.13371042974387"
      },
      "geometry": {
        "type": "Point",
        "coordinates": [
          84.42998837110328,
          -80.3967686843366
        ]
      }
    }
  ]
}